#dP2022 12  3  0  0  0.00000000      96 __u+U IGS14 FIT  IAC
## 2238 518400.00000000   900.00000000 59916 0.0000000000000
+  118   C06C07C08C09C10C11C12C13C14C16C19C20C21C22C23C24C25
+        C26C27C28C29C30C32C33C34C35C36C37C38C39C40C41C42C43
+        C44C45C46E01E02E03E04E05E07E08E09E10E11E12E13E14E15
+        E18E19E21E24E25E26E27E30E31E33E34E36G01G02G03G04G05
+        G06G07G08G09G10G11G12G13G14G15G16G17G18G19G20G21G22
+        G23G24G25G26G27G29G30G31G32J02J03J04R01R02R03R04R05
+        R07R08R09R11R12R13R14R15R17R18R19R20R21R22R24R25  0
++         7  7  8  7  7  7  6  9  7  7  6  6  5  6  6  6  6
++         6  6  6  6  6  6  6  6  6  6  6  7  6  7  6  6  6
++         6  6  6  4  4  4  4  4  4  8  4  4  4  4  4  5  4
++         4  4  4  4  4  4  4  4  4  4  4  4  3  3  4  3  3
++         4  3  3  3  4  3  4  3  3  3  4  4  3  4  3  3  4
++         3  3  3  4  3  3  3  4  4 10 10 10  8  7  7  7  7
++         7  6  6  7  7  8  7  7  7  7  8  8  7  8  7  8  0
%c M  cc GPS ccc cccc cccc cccc cccc ccccc ccccc ccccc ccccc
%c cc cc ccc ccc cccc cccc cccc cccc ccccc ccccc ccccc ccccc
%f  1.2500000  1.025000000  0.00000000000  0.000000000000000
%f  0.0000000  0.000000000  0.00000000000  0.000000000000000
%i    0    0    0    0      0      0      0      0         0
%i    0    0    0    0      0      0      0      0         0
/* INFORMATION & ANALYSIS CENTER (IAC)            FINAL DATA
/* S/V CLOCKS ARE ALIGNED TO GNSS TIME                      
/* G:C1WC2W R:C1PC2P E:C1XC5X C:C2IC6I J:C1CC2S             
/* PCV:IGS20_2233 OL/AL:FES2004  NONE     YN ORB:CoN CLK:CoN
*  2022 12 03 21 30  0.00000000
PC06 -17140.836261  33267.709833 -19669.456849    224.470993
PC07  -3499.599753  38064.279630 -17604.885912    125.991402
PC08  -5828.952455  19884.198455  36731.835872    519.315328
PC09 -11492.852049  31766.088862 -25169.339157   -791.543565
PC10   2941.035398  40149.664915 -11385.225363     57.781033
PC11  20258.235414  -3463.858921  18965.917547   -256.406924
PC12   8604.452635  13214.590929  23067.792702    329.434847
PC13   2814.553776  23339.482944  35191.361918    149.189959
PC14  17346.279394   5934.627595 -21012.091180    232.490118
PC16 -22030.018714  32826.680188 -14883.400060    107.518946
PC19 -14948.614660   4971.014253  23052.679962   -907.157377
PC20 -17099.970934 -14307.591678  16800.961909    817.738756
PC21   9034.932709  26395.197201     82.793670   -930.735931
PC22  -4086.252021  22295.171771  16260.276807   -759.465756
PC23  11559.197369 -13504.346501  21514.173849   -873.176023
PC24  24621.361662  10603.643842  -7827.282446   -722.675246
PC25  25504.627407  -3476.951611  10798.513714     34.103363
PC26  10869.309844  16345.435223 -19864.906658    -44.794174
PC27  -1183.068207 -19475.309095 -19962.124325     60.840563
PC28  14152.208572 -23042.404776  -6896.842086     43.151990
PC29 -21534.931648  13532.595517 -11484.794857     48.929806
PC30 -16050.984329  -4948.156394 -22289.845939      1.132978
PC32  -9200.824659 -26346.665221   -154.456554   -695.233230
PC33  14973.327674  -4964.993299 -23020.300378   -899.911440
PC34  16762.333041   3852.339694  21965.564362     53.182501
PC35 -14440.304717  23288.631717   5363.513466    116.817533
PC36 -25827.655120   2439.934945 -10247.244612   -794.094629
PC37  -8959.581546 -16720.250265  20466.943173   -895.486638
PC38 -14382.545579  19368.268653  34586.330385     42.481432
PC39 -23211.647096  33669.353398 -10697.954309     -0.994452
PC40  -8197.769185  34799.441158 -22203.235090     -9.428073
PC41   4403.460650 -21958.076903 -16600.028568   -341.944882
PC42  16938.209456  15425.663387 -15886.695941   -782.637036
PC43  21647.623255 -12780.024060  12090.789265     28.257216
PC44   1753.051880  19641.520657  19750.210512    133.732721
PC45 -11096.498976  13559.273668 -21717.412021    -30.226639
PC46 -25462.489463  -9540.167428   6167.707510    -17.187627
PE01 -17144.556433   5999.709331 -23367.100737   -575.283986
PE02  16975.930434  -6219.563891  23440.586091      6.399183
PE03  15926.152282 -18463.021164 -16796.266634   -626.227773
PE04  -5955.449082  28997.850969   -109.787334     -6.374807
PE05  16750.280236   3186.629501 -24200.455768   -118.560972
PE07  -7798.958331 -22648.760568  17388.635244     -4.315131
PE08   5913.385361 -29006.551130     66.181313      3.211456
PE09   7629.820040  22752.352089 -17328.610706   -751.314642
PE10    902.809588  16417.646943  24611.235776   -495.257283
PE11  12700.979752  12074.188128  23850.536443   1030.913080
PE12  -9984.369268  17902.875582  21361.422400   -311.855569
PE13 -11752.756562 -12453.661315 -24135.309336    430.470964
PE14   3783.893203  19726.702285  12160.584718     74.428401
PE15  10288.927478 -17857.987742 -21235.972443    703.321181
PE18  -7732.998955 -25090.130082 -19163.185301   -670.164628
PE19 -16601.724146  15947.412083  18610.496078  -3835.580651
PE21 -24608.727856 -10448.161093 -12694.793732   -498.268327
PE24  17893.204332  22574.733070  -6890.697087   -981.975277
PE25  24641.154825  10712.653626  12438.454359   -594.121208
PE26 -27018.833951    666.929065 -12051.627290  -1891.947874
PE27 -18591.103970 -22223.410295   6018.812351   -454.582675
PE30   -848.123178 -20499.466746  21321.159254  -1049.073656
PE31   1712.667365  20802.776251 -20984.097539   -509.748162
PE33 -26097.080567  12693.925483   5842.993876   -455.661002
PE34  26005.712967 -12820.859802  -5995.233216    -17.794007
PE36  26659.517837   -179.483321  12868.053275   -470.076006
PG01  -3229.257253 -14375.423641 -22407.227724    242.735916
PG02   6675.815461  13937.649983  22225.824378   -634.860018
PG03  -9763.717850 -21766.766123 -11913.764839   -374.989743
PG04  -1036.417047 -23653.015620  11933.057482    -75.195158
PG05  -2434.531837  16951.840469  20096.212934   -106.700516
PG06 -25921.631048   5969.301682   -345.333696    532.583150
PG07 -18523.667515  -8509.532308  17701.308977    279.365903
PG08   5833.073853 -25671.607074  -1259.451120    -96.886924
PG09  -9941.743304 -15361.553899  19155.542490   -259.124713
PG10  21008.828758   7787.269665 -14345.079364    -14.543163
PG11 -20722.296824  12039.091246  11417.959159    -50.335172
PG12   7355.012307  22386.622766 -12629.223294   -311.677727
PG13 -13257.253556  22440.207170   4383.462880    435.710231
PG14 -21141.022972  -9931.856542 -12745.897893    -73.900397
PG15  -2402.917548  26252.598983  -1952.281169     -7.134317
PG16   8367.219604 -12982.784286  21263.188514   -526.564301
PG17 -14917.097255  -1440.092806 -21494.563919    683.041482
PG18  20101.934843   6688.430270  16110.534999    -45.415213
PG19 -17106.754476   9967.999231 -17805.555966    245.730437
PG20 -13616.674007   8758.840247  21041.438076    465.935751
PG21   5748.349121 -16231.326170 -19391.825317    154.675112
PG22  16546.252392 -13460.723946 -15291.247189    377.367839
PG23  20849.300841  15864.573831  -4807.068615     -0.444839
PG24   -459.547869  16572.193296 -21024.636596     31.890150
PG25  16354.506907  20779.820384  -4069.435919    398.655230
PG26  17222.005969  -4001.182476  19811.372208    237.525759
PG27  12647.057615 -21089.394701   9270.015907    162.651347
PG29   6767.222141  17646.570245  18585.404382   -571.563759
PG30 -25444.407865   -216.380084   8148.787826   -535.956882
PG31  26000.442168  -6463.301476    921.242545   -202.157649
PG32  15901.917920  -2159.188562 -20977.621689   -317.311856
PJ02 -22877.986398  18179.071914 -25787.385717     -0.245091
PJ03 -28599.856053  30996.087511   7640.114355     -5.894830
PJ04 -26580.513455  26820.263293  24776.821535    114.285840
PR01   7100.841187  23729.680767  -6089.859334     18.935552
PR02  11197.687248   9804.260132 -20699.024014    -23.408046
PR03   9050.852152  -9429.635493 -21852.997737     68.422140
PR04   1860.079004 -22966.912464 -10899.529337    167.233293
PR05  -6200.306975 -23979.765863   6038.803443    103.950598
PR07  -8822.746494  10321.480677  21639.216495     45.438560
PR08  -1776.743034  23066.587183  10836.883602    -68.410552
PR09 -24143.777538  -8282.788795  -1069.579101     91.041223
PR11  -4258.028614  10057.058076 -23043.057240     17.200735
PR12  14820.224037  13721.536112 -15571.065613     23.356989
PR13  23786.899420   9202.815490   -579.094282    -29.571593
PR14  19088.488413  -1458.574822  16859.111332     24.077672
PR15   3292.582933 -10563.479071  23000.090126     92.567020
PR17  21022.785316 -13573.486655   5075.809140    583.730035
PR18  14359.939574 -17610.163523 -11521.472984     55.054550
PR19   1799.153411 -13241.486542 -21722.263415   -213.246468
PR20 -15853.499678    548.878347 -19973.620285    -83.287908
PR21 -20867.212164  14241.614034  -3401.438923   -354.659163
PR22 -14339.981123  17258.229877  12174.114982     19.632801
PR24  16460.448158  -1172.809041  19481.338232    130.479423
PR25 -21691.466274  12249.275809  -5423.655057     47.958255
EOF
